IRIDIUM 171             
1 43929U 19002H   24282.82622999  .00000076  00000+0  20018-4 0  9991
2 43929  86.3939 251.3439 0002563  85.9732 274.1756 14.34220934300618
IRIDIUM 170             
1 43930U 19002J   24282.90198139  .00005206  00000+0  82114-3 0  9990
2 43930  86.6069 251.1111 0002623  80.3875 279.7638 14.72261359308588
IRIDIUM 167             
1 43931U 19002K   24282.88965472  .00001214  00000+0  42648-3 0  9993
2 43931  86.3939 251.0972 0002820  92.7446 267.4073 14.34214172300629
IRIDIUM 181             
1 56726U 23068S   24282.78625386  .00002042  00000+0  59737-3 0  9999
2 56726  86.8601 310.4332 0002557  92.1060 268.0434 14.43589661 73521
IRIDIUM 177             
1 56727U 23068T   24282.86357438  .00002716  00000+0  35357-3 0  9999
2 56727  86.1931 261.3612 0002597 101.1061 259.0452 14.80276039 75190
IRIDIUM 178             
1 56729U 23068V   24282.44704728  .00003339  00000+0  43568-3 0  9998
2 56729  86.5718 284.5187 0002462  91.0630 269.0874 14.80255094 75134
IRIDIUM 179             
1 56730U 23068W   24282.30642617  .00005088  00000+0  66557-3 0  9999
2 56730  86.6733 290.1433 0002452 102.4216 257.7280 14.80258212 75115
